0 COSMOS 546
1 06350U 73005A   13281.42383778  .00001232  00000-0  77054-4 0   981
2 06350 050.6454 314.3198 0015445 056.1561 304.0868 15.17089777236969
0 COSMOS 546
1 06350U 73005A   13282.47775214  .00001138  00000-0  72343-4 0   999
2 06350 050.6454 309.2448 0015424 060.1722 300.0770 15.17098526237120
0 COSMOS 546
1 06350U 73005A   13283.53166202  .00000835  00000-0  57313-4 0  1004
2 06350 050.6454 304.1698 0015402 064.0907 296.1639 15.17103472237288
0 COSMOS 546
1 06350U 73005A   13285.44186403  .00000195  00000-0  25574-4 0  1015
2 06350 050.6452 294.9715 0015362 071.4486 288.8143 15.17111523237577
0 COSMOS 546
1 06350U 73005A   13286.49576298  .00000267  00000-0  29106-4 0  1022
2 06350 050.6450 289.8965 0015341 075.6505 284.6158 15.17113827237737
0 COSMOS 546
1 06350U 73005A   13288.14247545  .00000610  00000-0  46136-4 0  1031
2 06350 050.6447 281.9669 0015337 081.9920 278.2781 15.17119513237989
0 COSMOS 546
1 06350U 73005A   13289.45983982  .00000359  00000-0  33675-4 0  1043
2 06350 050.6445 275.6231 0015350 086.9866 273.2851 15.17121876238182
0 COSMOS 546
1 06350U 73005A   13291.10654041  .00000856  00000-0  58311-4 0  1056
2 06350 050.6444 267.6932 0015370 093.2709 267.0011 15.17120905238438
0 COSMOS 546
1 06350U 73005A   13292.42389987  .00001276  00000-0  79132-4 0  1068
2 06350 050.6443 261.3492 0015385 098.1759 262.0948 15.17120162238635
0 COSMOS 546
1 06350U 73005A   13294.13646666  .00001778  00000-0  10401-3 0  1079
2 06350 050.6445 253.1019 0015415 104.5725 255.6947 15.17122558238896
0 COSMOS 546
1 06350U 73005A   13295.38795649  .00002038  00000-0  11691-3 0  1086
2 06350 050.6447 247.0750 0015446 109.1748 251.0887 15.17126770239087
